CUTE-1 (CO-55)          
1 27844U 03031E   25267.97116093  .00000641  00000+0  29796-3 0  9996
2 27844  98.6788 274.8773 0008639 231.8238 128.2163 14.24077436153925
CUBESAT XI-IV (CO-57)   
1 27848U 03031J   25267.97011275  .00000536  00000+0  25523-3 0  9993
2 27848  98.6819 274.8001 0008388 251.7168 108.3098 14.23400610153640
CUBESAT XI-V            
1 28895U 05043F   25267.36743871  .00003662  00000+0  59914-3 0  9992
2 28895  98.2655  53.1670 0013797 332.5677  27.4799 14.71384603 62644
CUTE-1.7+APD II (CO-65) 
1 32785U 08021C   25268.18668058  .00010209  00000+0  71200-3 0  9995
2 32785  97.7988 240.2899 0008678 194.5469 165.5509 15.05562772945263
CANX-2                  
1 32790U 08021H   25267.88633472  .00008261  00000+0  62443-3 0  9993
2 32790  97.8290 238.5714 0009731 213.9127 146.1476 15.02587502944925
SEEDS II (CO-66)        
1 32791U 08021J   25267.88419471  .00025886  00000+0  11517-2 0  9992
2 32791  97.7382 250.5678 0005462 128.9520 231.2203 15.21452663946790
SWISSCUBE               
1 35932U 09051B   25268.25856069  .00002493  00000+0  51152-3 0  9995
2 35932  98.4153 166.4499 0006287 328.3842  31.6980 14.61593947850443
BEESAT-1                
1 35933U 09051C   25268.27734211  .00002115  00000+0  44133-3 0  9994
2 35933  98.4087 166.6288 0005049 346.0496  14.0564 14.60968926850495
ITUPSAT1                
1 35935U 09051E   25267.76649662  .00001802  00000+0  38776-3 0  9992
2 35935  98.4180 165.5603 0007501 352.4733   7.6353 14.59747276850002
TISAT 1                 
1 36799U 10035E   25267.72241067  .00026108  00000+0  12349-2 0  9991
2 36799  98.0525 188.6019 0005646  89.9413 270.2467 15.19345335827221
AEROCUBE 4.5A           
1 38767U 12048K   25268.23105425  .00055407  00000+0  12356-2 0  9990
2 38767  64.6452 225.2201 0088630 249.5336 109.6267 15.39120287331355
STRAND-1                
1 39090U 13009E   25267.77661669  .00000673  00000+0  24173-3 0  9999
2 39090  98.3856  89.6883 0007818 309.7395  50.3102 14.36898166658949
BRITE-AUSTRIA           
1 39091U 13009F   25268.09953950  .00000437  00000+0  16389-3 0  9991
2 39091  98.3918  89.2424 0009433 316.8868  43.1578 14.36364402658998
NEE-01 PEGASO           
1 39151U 13018B   25268.28811923  .00006142  00000+0  61879-3 0  9995
2 39151  98.0875  39.6770 0012425 319.3517  40.6772 14.91475423671182
POPACS 1                
1 39268U 13055D   25268.14158369  .00117980  28205-5  75461-3 0  9996
2 39268  80.9626 312.7504 0183413 328.3267  30.7045 15.56480833631264
POPACS 2                
1 39269U 13055E   25268.20501243  .00018828  00000+0  36000-3 0  9991
2 39269  80.9929  85.0716 0462269 318.5865  38.1135 14.79309557623866
POPACS 3                
1 39270U 13055F   25267.11557821  .00015111  00000+0  37545-3 0  9992
2 39270  81.0050 156.3857 0576561 156.8895 205.9402 14.49885939599919
ZACUBE-1 (TSHEPISOSAT)  
1 39417U 13066B   25267.86051887  .00010388  00000+0  87386-3 0  9999
2 39417  97.7912 224.4286 0044870  54.5211 306.0186 14.97656765640965
WNISAT-1                
1 39423U 13066H   25267.98692145  .00001158  00000+0  22167-3 0  9998
2 39423  97.6891  71.6346 0164592 347.6876  12.0323 14.57323186628094
TRITON-1                
1 39427U 13066M   25268.28917304  .00007935  00000+0  98691-3 0  9997
2 39427  97.8282 179.3257 0094121  17.7744 342.6723 14.79662329634889
GOMX-1                  
1 39430U 13066Q   25268.26131918  .00004204  00000+0  65133-3 0  9999
2 39430  97.6700 120.2849 0130761 207.1258 152.3076 14.68054563631027
CUBEBUG-2 (LO-74)       
1 39440U 13066AA  25267.76862009  .00006232  00000+0  61800-3 0  9996
2 39440  97.8568 211.6772 0060720 184.5497 175.5177 14.90758797637404
NEE-02 KRYSAOR          
1 39441U 13066AB  25268.29000074  .00004407  00000+0  50396-3 0  9992
2 39441  97.8604 205.1062 0067125 216.7090 142.9518 14.84902275636860
FUNCUBE-1 (AO-73)       
1 39444U 13066AE  25267.86763790  .00016221  00000+0  11593-2 0  9990
2 39444  97.7928 230.3489 0041772  26.9924 333.3462 15.03845517639708
UWE-3                   
1 39446U 13066AG  25267.81483386  .00008997  00000+0  82956-3 0  9990
2 39446  97.8338 218.2506 0054028 121.9050 238.7441 14.93780724637917
BRITE-CA1 (TORONTO)     
1 40020U 14033L   25268.33408659  .00002076  00000+0  32310-3 0  9994
2 40020  97.9406  37.8521 0080609  45.4845 315.2912 14.71881704603241
DUCHIFAT-1              
1 40021U 14033M   25268.06206248  .00043763  00000+0  13500-2 0  9992
2 40021  98.0904 292.0851 0005579 309.3360  50.7386 15.33437238614768
NANOSATC-BR1            
1 40024U 14033Q   25268.27153770  .00024934  00000+0  11223-2 0  9998
2 40024  98.0945 273.9017 0005725  49.2755 310.8975 15.21068566613561
QB50P1                  
1 40025U 14033R   25267.87231302  .00016135  00000+0  93572-3 0  9994
2 40025  98.0924 256.6082 0011833  58.8856 301.3533 15.12203286612849
QB50P2                  
1 40032U 14033Y   25267.86790667  .00014424  00000+0  89402-3 0  9991
2 40032  98.0559 244.5499 0008614  14.2535 345.8934 15.09841405612555
PERSEUS-M2              
1 40037U 14033AD  25268.34044910  .00003664  00000+0  34741-3 0  9993
2 40037  97.9623 209.2743 0013940  96.3070 263.9737 14.94143593611212
PERSEUS-M1              
1 40039U 14033AF  25268.25991523  .00003973  00000+0  37611-3 0  9998
2 40039  97.9334 203.7765 0013669  94.9692 265.3089 14.94156968611056
POLYITAN-1              
1 40042U 14033AJ  25267.87591159  .00028994  00000+0  12821-2 0  9995
2 40042  98.1096 266.1153 0009003   8.3848 351.7535 15.21620925613082
TIGRISAT                
1 40043U 14033AK  25267.87011523  .00005077  00000+0  61093-3 0  9991
2 40043  97.7502  59.8181 0050112 223.7121 136.0120 14.83444104606268
AEROCUBE 6A             
1 40045U 14033AM  25267.03850929  .00014577  00000+0  13635-2 0  9995
2 40045  97.7030  72.9847 0041884 184.2664 175.8205 14.93534647606820
AEROCUBE 6B             
1 40046U 14033AN  25268.01859489  .00015248  00000+0  13816-2 0  9992
2 40046  97.7015  73.2426 0040780 173.2460 186.9319 14.94806621607079
CANX-4                  
1 40055U 14034C   25267.55021483  .00001984  00000+0  26660-3 0  9990
2 40055  98.3475 127.6289 0013671 139.8365 220.3859 14.80455393605215
CANX-5                  
1 40056U 14034D   25267.55159070  .00001979  00000+0  26585-3 0  9995
2 40056  98.3477 127.6584 0013667 140.0293 220.1926 14.80470779596021
UKUBE-1                 
1 40074U 14037F   25268.31807391  .00018217  00000+0  12095-2 0  9992
2 40074  98.4062 240.2353 0002460  51.7286 308.4161 15.07289977608569
BRITE-PL2 (HEWELIUSZ)   
1 40119U 14049B   25268.20481785  .00004106  00000+0  39966-3 0  9997
2 40119  97.8961  13.7316 0013216 268.2562  91.7143 14.93036188601883
AEROCUBE 5C             
1 40965U 15058B   25268.28166673  .00009437  00000+0  81878-3 0  9992
2 40965  64.7707   5.5255 0148778 164.6726 195.8967 14.89339066326179
AEROCUBE 7              
1 40966U 15058C   25268.23811027  .00010662  00000+0  86029-3 0  9993
2 40966  64.7661 353.0683 0139654 164.6147 195.9280 14.92873444326362
FOX-1A (AO-85)          
1 40967U 15058D   25268.30839291  .00009694  00000+0  86079-3 0  9993
2 40967  64.7786  20.9482 0145134 159.0308 201.6841 14.88827478 74106
SINOD-D 1               
1 40968U 15058E   25267.57117727  .00011866  00000+0  96814-3 0  9997
2 40968  64.7788   9.0196 0134250 158.0258 202.6689 14.92922777 76969
SNAP-3 ALICE            
1 40970U 15058G   25268.28600840  .00042740  00000+0  15568-2 0  9993
2 40970  64.7623 273.1443 0061262 158.2768 202.0982 15.26177062 76078
LMRST-SAT               
1 40971U 15058H   25268.26732144  .00009164  00000+0  81538-3 0  9999
2 40971  64.7790  16.9484 0147781 160.6586 200.0219 14.88522284 74096
SNAP-3 EDDIE            
1 40972U 15058J   25268.23541653  .00042643  00000+0  15151-2 0  9996
2 40972  64.7546 265.5079 0065990 161.0429 199.3180 15.26699205 78182
PROPCUBE 3              
1 40973U 15058K   25267.57496835  .00010162  00000+0  84291-3 0  9997
2 40973  64.7721   0.9549 0141717 163.0199 197.5729 14.91679028 75143
BISONSAT                
1 40974U 15058L   25268.17906561  .00017864  00000+0  10250-2 0  9996
2 40974  64.7622 305.7144 0100758 160.8917 199.6028 15.08393311 75539
SNAP-3 JIMI             
1 40975U 15058M   25268.19314003  .00012792  00000+0  92358-3 0  9998
2 40975  64.7680 335.8556 0124941 161.8147 198.7499 14.98249302 74462
PROPCUBE 1 (FLORA)      
1 40976U 15058N   25267.71594551  .00009424  00000+0  86911-3 0  9990
2 40976  64.7774  36.8834 0147482 162.8239 197.7942 14.87184693 76757
SINOD-D 3               
1 40977U 15058P   25267.68078476  .00011954  00000+0  10153-2 0  9995
2 40977  64.7758  23.3345 0136607 162.0383 198.5628 14.91197154 75128
HORYU-4                 
1 41340U 16012D   25267.86768174  .00048536  00000+0  10881-2 0  9996
2 41340  30.9940 127.9742 0004775  86.8256 273.2937 15.42148451529339
RAVAN                   
1 41849U 16067B   25268.17385928  .00032001  00000+0  98225-3 0  9996
2 41849  98.0298 126.2470 0007417 211.1605 148.9197 15.33656528486811
CELTEE 1                
1 41850U 16067C   25268.08238558  .00009432  00000+0  49804-3 0  9995
2 41850  98.0982 111.7059 0002444  79.1065 281.0441 15.15761177485662
OPTICUBE 04             
1 41851U 16067D   25268.08311005  .00005567  00000+0  36715-3 0  9997
2 41851  98.0909 101.4337 0015091 295.6786  64.2882 15.07827018485190
AEROCUBE 8D             
1 41852U 16067E   25268.08300715  .00012429  00000+0  59525-3 0  9993
2 41852  98.1005 113.4769 0003436 352.0099   8.1078 15.19102854485748
AEROCUBE 8C             
1 41853U 16067F   25268.07869104  .00012698  00000+0  60511-3 0  9990
2 41853  98.0864 111.0798 0004550 252.4913 107.5823 15.19264013485730
PROMETHEUS 2-1          
1 41854U 16067G   25268.16331381  .00144786  00000+0  16679-2 0  9991
2 41854  98.0569 134.9540 0004161 186.7305 173.3896 15.61475141487112
